IRIDIUM 116             
1 43072U 17083C   25352.58429886  .00000073  00000+0  19160-4 0  9992
2 43072  86.3959  37.4886 0002584  95.3955 264.7535 14.34216883418284
IRIDIUM 130             
1 43073U 17083D   25352.55258414  .00000138  00000+0  42178-4 0  9994
2 43073  86.3973  37.7599 0002497  99.4858 260.6620 14.34219520418220
IRIDIUM 151             
1 43074U 17083E   25352.59698160  .00000112  00000+0  32759-4 0  9991
2 43074  86.3965  37.5373 0002244  93.2372 266.9081 14.34218191418259
IRIDIUM 134             
1 43075U 17083F   25352.63504142  .00000231  00000+0  75405-4 0  9990
2 43075  86.3965  37.5268 0002293  98.8176 261.3279 14.34215566418228
IRIDIUM 137             
1 43076U 17083G   25352.57795586  .00000057  00000+0  13243-4 0  9996
2 43076  86.3967  37.6398 0002627  86.4416 273.7080 14.34217551418286
IRIDIUM 141             
1 43077U 17083H   25352.57161092  .00000221  00000+0  72011-4 0  9997
2 43077  86.3961  37.4833 0002060  96.5497 263.5933 14.34218533418280
IRIDIUM 153             
1 43078U 17083J   25352.59355705  .00000113  00000+0  33123-4 0  9997
2 43078  86.3968   5.9646 0001878  97.1789 262.9620 14.34218414419394
IRIDIUM 131             
1 43079U 17083K   25352.55892559  .00000240  00000+0  78775-4 0  9990
2 43079  86.3969  37.6627 0002117  93.3367 266.8071 14.34218728418215
